*******************************************************************************
Ephemeris / WWW_USER Fri Mar  7 10:36:07 2025 Pasadena, USA      / Horizons    
*******************************************************************************
Target body name: (2017 SN16)                     {source: JPL#20}
Center body name: Earth (399)                     {source: DE441}
Center-site name: Mauna Kea
*******************************************************************************
Start time      : A.D. 2018-Sep-04 04:44:00.0000 UT      
Stop  time      : A.D. 2018-Sep-04 15:57:00.0000 UT      
Step-size       : 1 minutes
*******************************************************************************
Target pole/equ : undefined
Target radii    : undefined                                                    
Center geodetic : 204.5278, 19.8260847, 4.21024   {E-lon(deg),Lat(deg),Alt(km)}
Center cylindric: 204.5278, 6006.35451, 2151.0229 {E-lon(deg),Dxy(km),Dz(km)}
Center pole/equ : ITRF93                          {East-longitude positive}
Center radii    : 6378.137, 6378.137, 6356.752 km {Equator_a, b, pole_c}       
Target primary  : Sun
Vis. interferer : MOON (R_eq= 1737.400) km        {source: DE441}
Rel. light bend : Sun                             {source: DE441}
Rel. lght bnd GM: 1.3271E+11 km^3/s^2                                          
Small-body perts: Yes                             {source: SB441-N16}
Atmos refraction: NO (AIRLESS)
RA format       : HMS
Time format     : CAL 
Calendar mode   : Mixed Julian/Gregorian
RTS-only print  : NO       
EOP file        : eop.250306.p250602                                           
EOP coverage    : DATA-BASED 1962-JAN-20 TO 2025-MAR-06. PREDICTS-> 2025-JUN-01
Units conversion: 1 au= 149597870.700 km, c= 299792.458 km/s, 1 day= 86400.0 s 
Table cut-offs 1: Elevation (-90.0deg=NO ),Airmass (>38.000=NO), Daylight (YES)
Table cut-offs 2: Solar elongation (  0.0,180.0=NO ),Local Hour Angle( 0.0=NO )
Table cut-offs 3: RA/DEC angular rate (     0.0=NO )                           
*******************************************************************************
Initial IAU76/J2000 heliocentric ecliptic osculating elements (au, days, deg.):
  EPOCH=  2458305.5 ! 2018-Jul-06.00 (TDB)         Residual RMS= .23751        
   EC= .1454884975659386   QR= .8682464985612274   TP= 2458145.5722438502      
   OM= 2.759719470837934   W=  137.1017088998531   IN= 13.38264682844635       
  Equivalent ICRF heliocentric cartesian coordinates (au, au/d):
   X= 5.756755401261899E-01  Y=-7.953424559592890E-01  Z=-6.031561894536019E-01
  VX= 1.332076113263395E-02 VY= 5.454663564585547E-03 VZ= 3.896229736425836E-03
Asteroid physical parameters (km, seconds, rotational period in hours):        
   GM= n.a.                RAD= n.a.               ROTPER= n.a.                
   H= 23.34                G= .150                 B-V= n.a.                   
                           ALBEDO= n.a.            STYP= n.a.                  
*******************************************************************************
 Date__(UT)__HR:MN     R.A._________(ICRF)_________DEC
******************************************************
$$SOE
 2018-Sep-04 06:47     01 15 39.405516 -24 29 11.64335
 2018-Sep-04 06:48     01 15 39.264142 -24 29 11.01353
 2018-Sep-04 06:49     01 15 39.122693 -24 29 10.38367
 2018-Sep-04 06:50     01 15 38.981169 -24 29 09.75376
 2018-Sep-04 06:51     01 15 38.839570 -24 29 09.12381
 2018-Sep-04 06:52     01 15 38.697897 -24 29 08.49381
 2018-Sep-04 06:53     01 15 38.556149 -24 29 07.86375
 2018-Sep-04 06:54     01 15 38.414326 -24 29 07.23365
 2018-Sep-04 06:55     01 15 38.272429 -24 29 06.60349
 2018-Sep-04 06:56     01 15 38.130456 -24 29 05.97327
 2018-Sep-04 06:57     01 15 37.988409 -24 29 05.34300
 2018-Sep-04 06:58     01 15 37.846288 -24 29 04.71267
 2018-Sep-04 06:59     01 15 37.704091 -24 29 04.08227
 2018-Sep-04 07:00     01 15 37.561820 -24 29 03.45182
 2018-Sep-04 07:01     01 15 37.419474 -24 29 02.82129
 2018-Sep-04 07:02     01 15 37.277054 -24 29 02.19071
 2018-Sep-04 07:03     01 15 37.134559 -24 29 01.56005
 2018-Sep-04 07:04     01 15 36.991989 -24 29 00.92933
 2018-Sep-04 07:05     01 15 36.849345 -24 29 00.29853
 2018-Sep-04 07:06     01 15 36.706626 -24 28 59.66767
 2018-Sep-04 07:07     01 15 36.563832 -24 28 59.03672
 2018-Sep-04 07:08     01 15 36.420964 -24 28 58.40570
 2018-Sep-04 07:09     01 15 36.278022 -24 28 57.77461
 2018-Sep-04 07:10     01 15 36.135005 -24 28 57.14343
 2018-Sep-04 07:11  r  01 15 35.991914 -24 28 56.51217
 2018-Sep-04 07:12     01 15 35.848748 -24 28 55.88083
 2018-Sep-04 07:13     01 15 35.705508 -24 28 55.24941
 2018-Sep-04 07:14     01 15 35.562193 -24 28 54.61789
 2018-Sep-04 07:15     01 15 35.418804 -24 28 53.98629
 2018-Sep-04 07:16     01 15 35.275341 -24 28 53.35460
 2018-Sep-04 07:17     01 15 35.131804 -24 28 52.72282
 2018-Sep-04 07:18     01 15 34.988192 -24 28 52.09095
 2018-Sep-04 07:19     01 15 34.844506 -24 28 51.45898
 2018-Sep-04 07:20     01 15 34.700747 -24 28 50.82691
 2018-Sep-04 07:21     01 15 34.556913 -24 28 50.19475
 2018-Sep-04 07:22     01 15 34.413005 -24 28 49.56249
 2018-Sep-04 07:23     01 15 34.269023 -24 28 48.93012
 2018-Sep-04 07:24     01 15 34.124967 -24 28 48.29765
 2018-Sep-04 07:25     01 15 33.980837 -24 28 47.66508
 2018-Sep-04 07:26     01 15 33.836633 -24 28 47.03240
 2018-Sep-04 07:27     01 15 33.692356 -24 28 46.39961
 2018-Sep-04 07:28     01 15 33.548004 -24 28 45.76671
 2018-Sep-04 07:29     01 15 33.403580 -24 28 45.13371
 2018-Sep-04 07:30     01 15 33.259081 -24 28 44.50058
 2018-Sep-04 07:31     01 15 33.114509 -24 28 43.86734
 2018-Sep-04 07:32     01 15 32.969863 -24 28 43.23399
 2018-Sep-04 07:33     01 15 32.825144 -24 28 42.60052
 2018-Sep-04 07:34     01 15 32.680351 -24 28 41.96693
 2018-Sep-04 07:35     01 15 32.535485 -24 28 41.33321
 2018-Sep-04 07:36     01 15 32.390546 -24 28 40.69937
 2018-Sep-04 07:37     01 15 32.245534 -24 28 40.06541
 2018-Sep-04 07:38     01 15 32.100448 -24 28 39.43132
 2018-Sep-04 07:39     01 15 31.955289 -24 28 38.79711
 2018-Sep-04 07:40     01 15 31.810058 -24 28 38.16276
 2018-Sep-04 07:41     01 15 31.664753 -24 28 37.52828
 2018-Sep-04 07:42     01 15 31.519375 -24 28 36.89367
 2018-Sep-04 07:43     01 15 31.373925 -24 28 36.25892
 2018-Sep-04 07:44     01 15 31.228402 -24 28 35.62404
 2018-Sep-04 07:45     01 15 31.082806 -24 28 34.98902
 2018-Sep-04 07:46     01 15 30.937137 -24 28 34.35386
 2018-Sep-04 07:47     01 15 30.791396 -24 28 33.71856
 2018-Sep-04 07:48     01 15 30.645583 -24 28 33.08311
 2018-Sep-04 07:49     01 15 30.499697 -24 28 32.44752
 2018-Sep-04 07:50     01 15 30.353739 -24 28 31.81179
 2018-Sep-04 07:51     01 15 30.207708 -24 28 31.17590
 2018-Sep-04 07:52     01 15 30.061606 -24 28 30.53987
 2018-Sep-04 07:53     01 15 29.915431 -24 28 29.90368
 2018-Sep-04 07:54     01 15 29.769185 -24 28 29.26734
 2018-Sep-04 07:55     01 15 29.622866 -24 28 28.63085
 2018-Sep-04 07:56     01 15 29.476476 -24 28 27.99420
 2018-Sep-04 07:57     01 15 29.330014 -24 28 27.35740
 2018-Sep-04 07:58     01 15 29.183481 -24 28 26.72043
 2018-Sep-04 07:59     01 15 29.036876 -24 28 26.08330
 2018-Sep-04 08:00     01 15 28.890199 -24 28 25.44601
 2018-Sep-04 08:01     01 15 28.743451 -24 28 24.80856
 2018-Sep-04 08:02     01 15 28.596632 -24 28 24.17094
 2018-Sep-04 08:03     01 15 28.449742 -24 28 23.53315
 2018-Sep-04 08:04     01 15 28.302781 -24 28 22.89520
 2018-Sep-04 08:05     01 15 28.155749 -24 28 22.25707
 2018-Sep-04 08:06     01 15 28.008646 -24 28 21.61877
 2018-Sep-04 08:07     01 15 27.861472 -24 28 20.98030
 2018-Sep-04 08:08     01 15 27.714227 -24 28 20.34165
 2018-Sep-04 08:09     01 15 27.566912 -24 28 19.70283
 2018-Sep-04 08:10     01 15 27.419527 -24 28 19.06382
 2018-Sep-04 08:11     01 15 27.272071 -24 28 18.42464
 2018-Sep-04 08:12     01 15 27.124545 -24 28 17.78527
 2018-Sep-04 08:13     01 15 26.976949 -24 28 17.14572
 2018-Sep-04 08:14     01 15 26.829283 -24 28 16.50599
 2018-Sep-04 08:15     01 15 26.681547 -24 28 15.86607
 2018-Sep-04 08:16     01 15 26.533741 -24 28 15.22596
 2018-Sep-04 08:17     01 15 26.385866 -24 28 14.58566
 2018-Sep-04 08:18     01 15 26.237921 -24 28 13.94517
 2018-Sep-04 08:19     01 15 26.089906 -24 28 13.30449
 2018-Sep-04 08:20     01 15 25.941822 -24 28 12.66361
 2018-Sep-04 08:21     01 15 25.793669 -24 28 12.02254
 2018-Sep-04 08:22     01 15 25.645447 -24 28 11.38127
 2018-Sep-04 08:23     01 15 25.497156 -24 28 10.73980
 2018-Sep-04 08:24     01 15 25.348796 -24 28 10.09813
 2018-Sep-04 08:25     01 15 25.200368 -24 28 09.45626
 2018-Sep-04 08:26     01 15 25.051871 -24 28 08.81418
 2018-Sep-04 08:27     01 15 24.903305 -24 28 08.17190
 2018-Sep-04 08:28     01 15 24.754671 -24 28 07.52941
 2018-Sep-04 08:29     01 15 24.605969 -24 28 06.88671
 2018-Sep-04 08:30     01 15 24.457198 -24 28 06.24381
 2018-Sep-04 08:31     01 15 24.308360 -24 28 05.60069
 2018-Sep-04 08:32     01 15 24.159454 -24 28 04.95736
 2018-Sep-04 08:33     01 15 24.010480 -24 28 04.31381
 2018-Sep-04 08:34     01 15 23.861439 -24 28 03.67005
 2018-Sep-04 08:35     01 15 23.712330 -24 28 03.02607
 2018-Sep-04 08:36     01 15 23.563154 -24 28 02.38187
 2018-Sep-04 08:37     01 15 23.413911 -24 28 01.73745
 2018-Sep-04 08:38     01 15 23.264601 -24 28 01.09281
 2018-Sep-04 08:39     01 15 23.115224 -24 28 00.44795
 2018-Sep-04 08:40     01 15 22.965780 -24 27 59.80286
 2018-Sep-04 08:41     01 15 22.816270 -24 27 59.15754
 2018-Sep-04 08:42     01 15 22.666693 -24 27 58.51200
 2018-Sep-04 08:43     01 15 22.517050 -24 27 57.86623
 2018-Sep-04 08:44     01 15 22.367340 -24 27 57.22022
 2018-Sep-04 08:45     01 15 22.217565 -24 27 56.57398
 2018-Sep-04 08:46     01 15 22.067724 -24 27 55.92751
 2018-Sep-04 08:47     01 15 21.917817 -24 27 55.28081
 2018-Sep-04 08:48     01 15 21.767845 -24 27 54.63386
 2018-Sep-04 08:49     01 15 21.617807 -24 27 53.98668
